start=new Date('2022-09-24T00:00:00.000Z').valueOf();
sats=[{"NORAD_CAT_ID":"52477","ELEMENT_SET_NO":"999","MEAN_MOTION_DOT":"0.00001710","PERIOD":"95.438","CLASSIFICATION_TYPE":"U","LAUNCH_DATE":"2022-05-06","CENTER_NAME":"EARTH","FILE":"3581644","EPOCH":"2022-09-23T11:08:15.725760","EPHEMERIS_TYPE":"0","APOAPSIS":"541.380","BSTAR":"0.00012554000000","COUNTRY_CODE":"US","ARG_OF_PERICENTER":"26.2244","DECAY_DATE":null,"MEAN_ANOMALY":"333.8866","MEAN_MOTION":"15.08834552","TLE_LINE2":"2 52477  53.2152 319.9526 0002339  26.2244 333.8866 15.08834552 21840","MEAN_ELEMENT_THEORY":"SGP4","MEAN_MOTION_DDOT":"0.0000000000000","TLE_LINE1":"1 52477U 22049AC  22266.46407090  .00001710  00000-0  12554-3 0  9999","ECCENTRICITY":"0.00023390","OBJECT_TYPE":"PAYLOAD","REV_AT_EPOCH":"2184","SEMIMAJOR_AXIS":"6917.897","GP_ID":"213311508","SITE":"AFETR","RCS_SIZE":"LARGE","OBJECT_ID":"2022-049AC","INCLINATION":"53.2152","TIME_SYSTEM":"UTC","RA_OF_ASC_NODE":"319.9526","PERIAPSIS":"538.144","OBJECT_NAME":"STARLINK-3860","REF_FRAME":"TEME"},{"REV_AT_EPOCH":"2171","TLE_LINE1":"1 52478U 22049AD  22266.49996728  .00024210  00000-0  15383-2 0  9996","ECCENTRICITY":"0.00023780","OBJECT_TYPE":"PAYLOAD","MEAN_MOTION_DDOT":"0.0000000000000","TLE_LINE2":"2 52478  53.2195 329.7961 0002378  67.1259 292.9984 15.08737403 21712","MEAN_ELEMENT_THEORY":"SGP4","MEAN_MOTION":"15.08737403","DECAY_DATE":null,"MEAN_ANOMALY":"292.9984","ARG_OF_PERICENTER":"67.1259","REF_FRAME":"TEME","OBJECT_NAME":"STARLINK-3825","PERIAPSIS":"538.414","RA_OF_ASC_NODE":"329.7961","INCLINATION":"53.2195","TIME_SYSTEM":"UTC","OBJECT_ID":"2022-049AD","RCS_SIZE":"LARGE","GP_ID":"213279564","SEMIMAJOR_AXIS":"6918.194","SITE":"AFETR","LAUNCH_DATE":"2022-05-06","PERIOD":"95.444","CLASSIFICATION_TYPE":"U","MEAN_MOTION_DOT":"0.00024210","ELEMENT_SET_NO":"999","NORAD_CAT_ID":"52478","COUNTRY_CODE":"US","BSTAR":"0.00153830000000","APOAPSIS":"541.704","EPHEMERIS_TYPE":"0","EPOCH":"2022-09-23T11:59:57.172992","FILE":"3581326","CENTER_NAME":"EARTH"},{"RCS_SIZE":"LARGE","INCLINATION":"53.2158","TIME_SYSTEM":"UTC","OBJECT_ID":"2022-049AE","GP_ID":"213336761","SITE":"AFETR","SEMIMAJOR_AXIS":"6917.919","REF_FRAME":"TEME","RA_OF_ASC_NODE":"319.1284","OBJECT_NAME":"STARLINK-3878","PERIAPSIS":"538.492","MEAN_ANOMALY":"313.6833","DECAY_DATE":null,"MEAN_ELEMENT_THEORY":"SGP4","TLE_LINE2":"2 52479  53.2158 319.1284 0001867  46.4314 313.6833 15.08827489 22952","MEAN_MOTION":"15.08827489","ARG_OF_PERICENTER":"46.4314","REV_AT_EPOCH":"2295","MEAN_MOTION_DDOT":"0.0000000000000","TLE_LINE1":"1 52479U 22049AE  22266.64807280  .00000083  00000-0  23340-4 0  9994","ECCENTRICITY":"0.00018670","OBJECT_TYPE":"PAYLOAD","EPOCH":"2022-09-23T15:33:13.489920","CENTER_NAME":"EARTH","FILE":"3581681","COUNTRY_CODE":"US","BSTAR":"0.00002334000000","EPHEMERIS_TYPE":"0","APOAPSIS":"541.075","MEAN_MOTION_DOT":"0.00000083","NORAD_CAT_ID":"52479","ELEMENT_SET_NO":"999","LAUNCH_DATE":"2022-05-06","PERIOD":"95.438","CLASSIFICATION_TYPE":"U"},{"MEAN_MOTION":"15.08835071","MEAN_ELEMENT_THEORY":"SGP4","TLE_LINE2":"2 52480  53.2199 329.5120 0001939  49.3661 310.7499 15.08835071 21568","DECAY_DATE":null,"MEAN_ANOMALY":"310.7499","ARG_OF_PERICENTER":"49.3661","REV_AT_EPOCH":"2156","OBJECT_TYPE":"PAYLOAD","TLE_LINE1":"1 52480U 22049AF  22266.56251569  .00000029  00000-0  19940-4 0  9991","ECCENTRICITY":"0.00019390","MEAN_MOTION_DDOT":"0.0000000000000","OBJECT_ID":"2022-049AF","INCLINATION":"53.2199","TIME_SYSTEM":"UTC","RCS_SIZE":"LARGE","GP_ID":"213336510","SEMIMAJOR_AXIS":"6917.895","SITE":"AFETR","REF_FRAME":"TEME","PERIAPSIS":"538.419","OBJECT_NAME":"STARLINK-3839","RA_OF_ASC_NODE":"329.5120","MEAN_MOTION_DOT":"0.00000029","ELEMENT_SET_NO":"999","NORAD_CAT_ID":"52480","PERIOD":"95.438","CLASSIFICATION_TYPE":"U","LAUNCH_DATE":"2022-05-06","EPOCH":"2022-09-23T13:30:01.355616","FILE":"3581681","CENTER_NAME":"EARTH","BSTAR":"0.00001994000000","COUNTRY_CODE":"US","APOAPSIS":"541.102","EPHEMERIS_TYPE":"0"},{"CLASSIFICATION_TYPE":"U","PERIOD":"95.437","LAUNCH_DATE":"2022-05-06","NORAD_CAT_ID":"52481","ELEMENT_SET_NO":"999","MEAN_MOTION_DOT":"0.00001602","EPHEMERIS_TYPE":"0","APOAPSIS":"540.630","BSTAR":"0.00011873000000","COUNTRY_CODE":"US","CENTER_NAME":"EARTH","FILE":"3581681","EPOCH":"2022-09-23T13:40:36.488928","MEAN_MOTION_DDOT":"0.0000000000000","ECCENTRICITY":"0.00013010","TLE_LINE1":"1 52481U 22049AG  22266.56986677  .00001602  00000-0  11873-3 0  9991","OBJECT_TYPE":"PAYLOAD","REV_AT_EPOCH":"2280","ARG_OF_PERICENTER":"62.7892","DECAY_DATE":null,"MEAN_ANOMALY":"297.3233","MEAN_MOTION":"15.08845034","MEAN_ELEMENT_THEORY":"SGP4","TLE_LINE2":"2 52481  53.2203 329.4824 0001301  62.7892 297.3233 15.08845034 22807","RA_OF_ASC_NODE":"329.4824","PERIAPSIS":"538.830","OBJECT_NAME":"STARLINK-3842","REF_FRAME":"TEME","SITE":"AFETR","GP_ID":"213337254","SEMIMAJOR_AXIS":"6917.865","RCS_SIZE":"LARGE","OBJECT_ID":"2022-049AG","INCLINATION":"53.2203","TIME_SYSTEM":"UTC"},{"COUNTRY_CODE":"US","BSTAR":"0.00001914800000","APOAPSIS":"540.867","EPHEMERIS_TYPE":"0","EPOCH":"2022-09-23T12:11:51.395136","FILE":"3581351","CENTER_NAME":"EARTH","LAUNCH_DATE":"2022-05-06","PERIOD":"95.438","CLASSIFICATION_TYPE":"U","MEAN_MOTION_DOT":"0.00000017","ELEMENT_SET_NO":"999","NORAD_CAT_ID":"52482","REF_FRAME":"TEME","OBJECT_NAME":"STARLINK-3813","PERIAPSIS":"538.682","RA_OF_ASC_NODE":"319.7503","INCLINATION":"53.2172","TIME_SYSTEM":"UTC","OBJECT_ID":"2022-049AH","RCS_SIZE":"LARGE","GP_ID":"213304975","SITE":"AFETR","SEMIMAJOR_AXIS":"6917.910","REV_AT_EPOCH":"2169","OBJECT_TYPE":"PAYLOAD","TLE_LINE1":"1 52482U 22049AH  22266.50823374  .00000017  00000-0  19148-4 0  9993","ECCENTRICITY":"0.00015790","MEAN_MOTION_DDOT":"0.0000000000000","TLE_LINE2":"2 52482  53.2172 319.7503 0001579  45.0874 315.0246 15.08830393 21690","MEAN_ELEMENT_THEORY":"SGP4","MEAN_MOTION":"15.08830393","MEAN_ANOMALY":"315.0246","DECAY_DATE":null,"ARG_OF_PERICENTER":"45.0874"},{"EPOCH":"2022-09-23T20:24:41.052960","CENTER_NAME":"EARTH","FILE":"3581681","COUNTRY_CODE":"US","BSTAR":"0.00039310000000","EPHEMERIS_TYPE":"0","APOAPSIS":"541.049","MEAN_MOTION_DOT":"0.00005969","NORAD_CAT_ID":"52483","ELEMENT_SET_NO":"999","LAUNCH_DATE":"2022-05-06","CLASSIFICATION_TYPE":"U","PERIOD":"95.439","RCS_SIZE":"LARGE","INCLINATION":"53.2167","TIME_SYSTEM":"UTC","OBJECT_ID":"2022-049AJ","GP_ID":"213336347","SITE":"AFETR","SEMIMAJOR_AXIS":"6917.965","REF_FRAME":"TEME","RA_OF_ASC_NODE":"318.2231","OBJECT_NAME":"STARLINK-3875","PERIAPSIS":"538.611","MEAN_ANOMALY":"298.2712","DECAY_DATE":null,"MEAN_ELEMENT_THEORY":"SGP4","TLE_LINE2":"2 52483  53.2167 318.2231 0001762  61.8458 298.2712 15.08812432 22982","MEAN_MOTION":"15.08812432","ARG_OF_PERICENTER":"61.8458","REV_AT_EPOCH":"2298","MEAN_MOTION_DDOT":"0.0000000000000","TLE_LINE1":"1 52483U 22049AJ  22266.85047515  .00005969  00000-0  39310-3 0  9990","OBJECT_TYPE":"PAYLOAD","ECCENTRICITY":"0.00017620"},{"EPHEMERIS_TYPE":"0","APOAPSIS":"541.248","BSTAR":"0.00002264800000","COUNTRY_CODE":"US","CENTER_NAME":"EARTH","FILE":"3581326","EPOCH":"2022-09-23T11:49:19.974720","CLASSIFICATION_TYPE":"U","PERIOD":"95.437","LAUNCH_DATE":"2022-05-06","NORAD_CAT_ID":"52484","ELEMENT_SET_NO":"999","MEAN_MOTION_DOT":"0.00000072","RA_OF_ASC_NODE":"329.8346","PERIAPSIS":"538.236","OBJECT_NAME":"STARLINK-3887","REF_FRAME":"TEME","GP_ID":"213279412","SEMIMAJOR_AXIS":"6917.877","SITE":"AFETR","RCS_SIZE":"LARGE","OBJECT_ID":"2022-049AK","INCLINATION":"53.2187","TIME_SYSTEM":"UTC","MEAN_MOTION_DDOT":"0.0000000000000","OBJECT_TYPE":"PAYLOAD","TLE_LINE1":"1 52484U 22049AK  22266.49259230  .00000072  00000-0  22648-4 0  9997","ECCENTRICITY":"0.00021770","REV_AT_EPOCH":"2171","ARG_OF_PERICENTER":"43.2886","MEAN_ANOMALY":"316.8277","DECAY_DATE":null,"MEAN_MOTION":"15.08840955","TLE_LINE2":"2 52484  53.2187 329.8346 0002177  43.2886 316.8277 15.08840955 21714","MEAN_ELEMENT_THEORY":"SGP4"},{"ARG_OF_PERICENTER":"48.6912","DECAY_DATE":null,"MEAN_ANOMALY":"311.4234","TLE_LINE2":"2 52485  53.2177 318.2545 0001785  48.6912 311.4234 15.08833690 21745","MEAN_ELEMENT_THEORY":"SGP4","MEAN_MOTION":"15.08833690","MEAN_MOTION_DDOT":"0.0000000000000","TLE_LINE1":"1 52485U 22049AL  22266.84311062  .00000316  00000-0  37954-4 0  9996","OBJECT_TYPE":"PAYLOAD","ECCENTRICITY":"0.00017850","REV_AT_EPOCH":"2174","SEMIMAJOR_AXIS":"6917.900","GP_ID":"213337494","SITE":"AFETR","RCS_SIZE":"LARGE","INCLINATION":"53.2177","TIME_SYSTEM":"UTC","OBJECT_ID":"2022-049AL","RA_OF_ASC_NODE":"318.2545","OBJECT_NAME":"STARLINK-3913","PERIAPSIS":"538.530","REF_FRAME":"TEME","NORAD_CAT_ID":"52485","ELEMENT_SET_NO":"999","MEAN_MOTION_DOT":"0.00000316","LAUNCH_DATE":"2022-05-06","CLASSIFICATION_TYPE":"U","PERIOD":"95.438","CENTER_NAME":"EARTH","FILE":"3581681","EPOCH":"2022-09-23T20:14:04.757568","EPHEMERIS_TYPE":"0","APOAPSIS":"541.000","COUNTRY_CODE":"US","BSTAR":"0.00003795400000"},{"COUNTRY_CODE":"US","BSTAR":"0.00001195500000","APOAPSIS":"540.934","EPHEMERIS_TYPE":"0","EPOCH":"2022-09-23T13:14:07.653408","FILE":"3581681","CENTER_NAME":"EARTH","LAUNCH_DATE":"2022-05-06","CLASSIFICATION_TYPE":"U","PERIOD":"95.438","MEAN_MOTION_DOT":"-0.00000098","ELEMENT_SET_NO":"999","NORAD_CAT_ID":"52486","REF_FRAME":"TEME","OBJECT_NAME":"STARLINK-3918","PERIAPSIS":"538.588","RA_OF_ASC_NODE":"329.5611","INCLINATION":"53.2192","TIME_SYSTEM":"UTC","OBJECT_ID":"2022-049AM","RCS_SIZE":"MEDIUM","GP_ID":"213337089","SEMIMAJOR_AXIS":"6917.896","SITE":"AFETR","REV_AT_EPOCH":"2156","TLE_LINE1":"1 52486U 22049AM  22266.55147747 -.00000098  00000-0  11955-4 0  9993","OBJECT_TYPE":"PAYLOAD","ECCENTRICITY":"0.00016960","MEAN_MOTION_DDOT":"0.0000000000000","TLE_LINE2":"2 52486  53.2192 329.5611 0001696  50.7797 309.3346 15.08834862 21560","MEAN_ELEMENT_THEORY":"SGP4","MEAN_MOTION":"15.08834862","DECAY_DATE":null,"MEAN_ANOMALY":"309.3346","ARG_OF_PERICENTER":"50.7797"}];
